STARLINK-31480          
1 59306U 24056L   26068.47953038 -.00000732  00000+0 -17054-4 0  9995
2 59306  43.0030 231.7654 0002248 267.0952  92.9642 15.27570263111126
GESAT GEN1              
1 62612U 25009D   26068.72662138  .00010041  00000+0  38326-3 0  9990
2 62612  97.4058 151.4598 0000888  98.3547 261.7793 15.26847505 63732
